[{"OBJECT_NAME":"APRIZESAT 10","OBJECT_ID":"2014-033K","EPOCH":"2026-03-09T22:32:23.152704","MEAN_MOTION":14.70752531,"ECCENTRICITY":0.00780042,"INCLINATION":97.9479,"RA_OF_ASC_NODE":198.2119,"ARG_OF_PERICENTER":230.1102,"MEAN_ANOMALY":129.3229,"EPHEMERIS_TYPE":0,"CLASSIFICATION_TYPE":"U","NORAD_CAT_ID":40019,"ELEMENT_SET_NO":999,"REV_AT_EPOCH":62766,"BSTAR":0.00017424571,"MEAN_MOTION_DOT":1.061e-5,"MEAN_MOTION_DDOT":0},{"OBJECT_NAME":"COSMOS 2251 DEB","OBJECT_ID":"1993-036HS","EPOCH":"2026-03-09T18:42:00.321696","MEAN_MOTION":14.60773059,"ECCENTRICITY":0.00208479,"INCLINATION":74.0147,"RA_OF_ASC_NODE":329.323,"ARG_OF_PERICENTER":69.3516,"MEAN_ANOMALY":347.7849,"EPHEMERIS_TYPE":0,"CLASSIFICATION_TYPE":"U","NORAD_CAT_ID":34031,"ELEMENT_SET_NO":999,"REV_AT_EPOCH":89836,"BSTAR":0.001137201,"MEAN_MOTION_DOT":5.542e-5,"MEAN_MOTION_DDOT":0}]
